{
  "norad_id": 49125,
  "name": "CHINASAT 9B",
  "history": [
    {
      "epoch": "2026-03-23T19:28:32.771424Z",
      "apogee_km": 35796.75685101768,
      "perigee_km": 35777.075047602004,
      "latitude_deg": 0.03206985376573462,
      "longitude_deg": 101.38945814951192,
      "height_km": 35790.30668609259,
      "semi_major_axis_km": 42165.052949309844,
      "eccentricity": 0.00023339,
      "inclination_deg": 0.0346,
      "raan_deg": 93.1793,
      "arg_perigee_deg": 234.7762,
      "mean_anomaly_deg": 246.8822,
      "mean_motion_rev_day": 1.0027064
    }
  ]
}